{"type":"FeatureCollection","features":[{"type":"Feature","geometry":{"geodesic":false,"crs":{"type":"name","properties":{"name":"EPSG:4326"}},"type":"Polygon","coordinates":[[[77.10035267713073,28.400129909604576],[77.15035290584483,28.400129909604576],[77.15035290584483,28.45013013831867],[77.10035267713073,28.45013013831867],[77.10035267713073,28.400129909604576]]]},"id":"1542,568","properties":{"grid_id":"7713,2843"}},{"type":"Feature","geometry":{"geodesic":false,"crs":{"type":"name","properties":{"name":"EPSG:4326"}},"type":"Polygon","coordinates":[[[77.15035290584483,28.400129909604576],[77.20035313455892,28.400129909604576],[77.20035313455892,28.45013013831867],[77.15035290584483,28.45013013831867],[77.15035290584483,28.400129909604576]]]},"id":"1543,568","properties":{"grid_id":"7718,2843"}},{"type":"Feature","geometry":{"geodesic":false,"crs":{"type":"name","properties":{"name":"EPSG:4326"}},"type":"Polygon","coordinates":[[[77.20035313455892,28.400129909604576],[77.250353363273,28.400129909604576],[77.250353363273,28.45013013831867],[77.20035313455892,28.45013013831867],[77.20035313455892,28.400129909604576]]]},"id":"1544,568","properties":{"grid_id":"7723,2843"}},{"type":"Feature","geometry":{"geodesic":false,"crs":{"type":"name","properties":{"name":"EPSG:4326"}},"type":"Polygon","coordinates":[[[77.05035244841665,28.45013013831867],[77.10035267713073,28.45013013831867],[77.10035267713073,28.50013036703276],[77.05035244841665,28.50013036703276],[77.05035244841665,28.45013013831867]]]},"id":"1541,569","properties":{"grid_id":"7708,2848"}},{"type":"Feature","geometry":{"geodesic":false,"crs":{"type":"name","properties":{"name":"EPSG:4326"}},"type":"Polygon","coordinates":[[[77.10035267713073,28.45013013831867],[77.15035290584483,28.45013013831867],[77.15035290584483,28.50013036703276],[77.10035267713073,28.50013036703276],[77.10035267713073,28.45013013831867]]]},"id":"1542,569","properties":{"grid_id":"7713,2848"}},{"type":"Feature","geometry":{"geodesic":false,"crs":{"type":"name","properties":{"name":"EPSG:4326"}},"type":"Polygon","coordinates":[[[77.15035290584483,28.45013013831867],[77.20035313455892,28.45013013831867],[77.20035313455892,28.50013036703276],[77.15035290584483,28.50013036703276],[77.15035290584483,28.45013013831867]]]},"id":"1543,569","properties":{"grid_id":"7718,2848"}},{"type":"Feature","geometry":{"geodesic":false,"crs":{"type":"name","properties":{"name":"EPSG:4326"}},"type":"Polygon","coordinates":[[[77.20035313455892,28.45013013831867],[77.250353363273,28.45013013831867],[77.250353363273,28.50013036703276],[77.20035313455892,28.50013036703276],[77.20035313455892,28.45013013831867]]]},"id":"1544,569","properties":{"grid_id":"7723,2848"}},{"type":"Feature","geometry":{"geodesic":false,"crs":{"type":"name","properties":{"name":"EPSG:4326"}},"type":"Polygon","coordinates":[[[77.250353363273,28.45013013831867],[77.3003535919871,28.45013013831867],[77.3003535919871,28.50013036703276],[77.250353363273,28.50013036703276],[77.250353363273,28.45013013831867]]]},"id":"1545,569","properties":{"grid_id":"7728,2848"}},{"type":"Feature","geometry":{"geodesic":false,"crs":{"type":"name","properties":{"name":"EPSG:4326"}},"type":"Polygon","coordinates":[[[77.3003535919871,28.45013013831867],[77.3503538207012,28.45013013831867],[77.3503538207012,28.50013036703276],[77.3003535919871,28.50013036703276],[77.3003535919871,28.45013013831867]]]},"id":"1546,569","properties":{"grid_id":"7733,2848"}},{"type":"Feature","geometry":{"geodesic":false,"crs":{"type":"name","properties":{"name":"EPSG:4326"}},"type":"Polygon","coordinates":[[[76.85035153356027,28.50013036703276],[76.90035176227437,28.50013036703276],[76.90035176227437,28.550130595746854],[76.85035153356027,28.550130595746854],[76.85035153356027,28.50013036703276]]]},"id":"1537,570","properties":{"grid_id":"7688,2853"}},{"type":"Feature","geometry":{"geodesic":false,"crs":{"type":"name","properties":{"name":"EPSG:4326"}},"type":"Polygon","coordinates":[[[76.90035176227437,28.50013036703276],[76.95035199098845,28.50013036703276],[76.95035199098845,28.550130595746854],[76.90035176227437,28.550130595746854],[76.90035176227437,28.50013036703276]]]},"id":"1538,570","properties":{"grid_id":"7693,2853"}},{"type":"Feature","geometry":{"geodesic":false,"crs":{"type":"name","properties":{"name":"EPSG:4326"}},"type":"Polygon","coordinates":[[[76.95035199098845,28.50013036703276],[77.00035221970255,28.50013036703276],[77.00035221970255,28.550130595746854],[76.95035199098845,28.550130595746854],[76.95035199098845,28.50013036703276]]]},"id":"1539,570","properties":{"grid_id":"7698,2853"}},{"type":"Feature","geometry":{"geodesic":false,"crs":{"type":"name","properties":{"name":"EPSG:4326"}},"type":"Polygon","coordinates":[[[77.00035221970255,28.50013036703276],[77.05035244841665,28.50013036703276],[77.05035244841665,28.550130595746854],[77.00035221970255,28.550130595746854],[77.00035221970255,28.50013036703276]]]},"id":"1540,570","properties":{"grid_id":"7703,2853"}},{"type":"Feature","geometry":{"geodesic":false,"crs":{"type":"name","properties":{"name":"EPSG:4326"}},"type":"Polygon","coordinates":[[[77.05035244841665,28.50013036703276],[77.10035267713073,28.50013036703276],[77.10035267713073,28.550130595746854],[77.05035244841665,28.550130595746854],[77.05035244841665,28.50013036703276]]]},"id":"1541,570","properties":{"grid_id":"7708,2853"}},{"type":"Feature","geometry":{"geodesic":false,"crs":{"type":"name","properties":{"name":"EPSG:4326"}},"type":"Polygon","coordinates":[[[77.10035267713073,28.50013036703276],[77.15035290584483,28.50013036703276],[77.15035290584483,28.550130595746854],[77.10035267713073,28.550130595746854],[77.10035267713073,28.50013036703276]]]},"id":"1542,570","properties":{"grid_id":"7713,2853"}},{"type":"Feature","geometry":{"geodesic":false,"crs":{"type":"name","properties":{"name":"EPSG:4326"}},"type":"Polygon","coordinates":[[[77.15035290584483,28.50013036703276],[77.20035313455892,28.50013036703276],[77.20035313455892,28.550130595746854],[77.15035290584483,28.550130595746854],[77.15035290584483,28.50013036703276]]]},"id":"1543,570","properties":{"grid_id":"7718,2853"}},{"type":"Feature","geometry":{"geodesic":false,"crs":{"type":"name","properties":{"name":"EPSG:4326"}},"type":"Polygon","coordinates":[[[77.20035313455892,28.50013036703276],[77.250353363273,28.50013036703276],[77.250353363273,28.550130595746854],[77.20035313455892,28.550130595746854],[77.20035313455892,28.50013036703276]]]},"id":"1544,570","properties":{"grid_id":"7723,2853"}},{"type":"Feature","geometry":{"geodesic":false,"crs":{"type":"name","properties":{"name":"EPSG:4326"}},"type":"Polygon","coordinates":[[[77.250353363273,28.50013036703276],[77.3003535919871,28.50013036703276],[77.3003535919871,28.550130595746854],[77.250353363273,28.550130595746854],[77.250353363273,28.50013036703276]]]},"id":"1545,570","properties":{"grid_id":"7728,2853"}},{"type":"Feature","geometry":{"geodesic":false,"crs":{"type":"name","properties":{"name":"EPSG:4326"}},"type":"Polygon","coordinates":[[[77.3003535919871,28.50013036703276],[77.3503538207012,28.50013036703276],[77.3503538207012,28.550130595746854],[77.3003535919871,28.550130595746854],[77.3003535919871,28.50013036703276]]]},"id":"1546,570","properties":{"grid_id":"7733,2853"}},{"type":"Feature","geometry":{"geodesic":false,"crs":{"type":"name","properties":{"name":"EPSG:4326"}},"type":"Polygon","coordinates":[[[76.80035130484617,28.550130595746854],[76.85035153356027,28.550130595746854],[76.85035153356027,28.600130824460948],[76.80035130484617,28.600130824460948],[76.80035130484617,28.550130595746854]]]},"id":"1536,571","properties":{"grid_id":"7683,2858"}},{"type":"Feature","geometry":{"geodesic":false,"crs":{"type":"name","properties":{"name":"EPSG:4326"}},"type":"Polygon","coordinates":[[[76.85035153356027,28.550130595746854],[76.90035176227437,28.550130595746854],[76.90035176227437,28.600130824460948],[76.85035153356027,28.600130824460948],[76.85035153356027,28.550130595746854]]]},"id":"1537,571","properties":{"grid_id":"7688,2858"}},{"type":"Feature","geometry":{"geodesic":false,"crs":{"type":"name","properties":{"name":"EPSG:4326"}},"type":"Polygon","coordinates":[[[76.90035176227437,28.550130595746854],[76.95035199098845,28.550130595746854],[76.95035199098845,28.600130824460948],[76.90035176227437,28.600130824460948],[76.90035176227437,28.550130595746854]]]},"id":"1538,571","properties":{"grid_id":"7693,2858"}},{"type":"Feature","geometry":{"geodesic":false,"crs":{"type":"name","properties":{"name":"EPSG:4326"}},"type":"Polygon","coordinates":[[[76.95035199098845,28.550130595746854],[77.00035221970255,28.550130595746854],[77.00035221970255,28.600130824460948],[76.95035199098845,28.600130824460948],[76.95035199098845,28.550130595746854]]]},"id":"1539,571","properties":{"grid_id":"7698,2858"}},{"type":"Feature","geometry":{"geodesic":false,"crs":{"type":"name","properties":{"name":"EPSG:4326"}},"type":"Polygon","coordinates":[[[77.00035221970255,28.550130595746854],[77.05035244841665,28.550130595746854],[77.05035244841665,28.600130824460948],[77.00035221970255,28.600130824460948],[77.00035221970255,28.550130595746854]]]},"id":"1540,571","properties":{"grid_id":"7703,2858"}},{"type":"Feature","geometry":{"geodesic":false,"crs":{"type":"name","properties":{"name":"EPSG:4326"}},"type":"Polygon","coordinates":[[[77.05035244841665,28.550130595746854],[77.10035267713073,28.550130595746854],[77.10035267713073,28.600130824460948],[77.05035244841665,28.600130824460948],[77.05035244841665,28.550130595746854]]]},"id":"1541,571","properties":{"grid_id":"7708,2858"}},{"type":"Feature","geometry":{"geodesic":false,"crs":{"type":"name","properties":{"name":"EPSG:4326"}},"type":"Polygon","coordinates":[[[77.10035267713073,28.550130595746854],[77.15035290584483,28.550130595746854],[77.15035290584483,28.600130824460948],[77.10035267713073,28.600130824460948],[77.10035267713073,28.550130595746854]]]},"id":"1542,571","properties":{"grid_id":"7713,2858"}},{"type":"Feature","geometry":{"geodesic":false,"crs":{"type":"name","properties":{"name":"EPSG:4326"}},"type":"Polygon","coordinates":[[[77.15035290584483,28.550130595746854],[77.20035313455892,28.550130595746854],[77.20035313455892,28.600130824460948],[77.15035290584483,28.600130824460948],[77.15035290584483,28.550130595746854]]]},"id":"1543,571","properties":{"grid_id":"7718,2858"}},{"type":"Feature","geometry":{"geodesic":false,"crs":{"type":"name","properties":{"name":"EPSG:4326"}},"type":"Polygon","coordinates":[[[77.20035313455892,28.550130595746854],[77.250353363273,28.550130595746854],[77.250353363273,28.600130824460948],[77.20035313455892,28.600130824460948],[77.20035313455892,28.550130595746854]]]},"id":"1544,571","properties":{"grid_id":"7723,2858"}},{"type":"Feature","geometry":{"geodesic":false,"crs":{"type":"name","properties":{"name":"EPSG:4326"}},"type":"Polygon","coordinates":[[[77.250353363273,28.550130595746854],[77.3003535919871,28.550130595746854],[77.3003535919871,28.600130824460948],[77.250353363273,28.600130824460948],[77.250353363273,28.550130595746854]]]},"id":"1545,571","properties":{"grid_id":"7728,2858"}},{"type":"Feature","geometry":{"geodesic":false,"crs":{"type":"name","properties":{"name":"EPSG:4326"}},"type":"Polygon","coordinates":[[[77.3003535919871,28.550130595746854],[77.3503538207012,28.550130595746854],[77.3503538207012,28.600130824460948],[77.3003535919871,28.600130824460948],[77.3003535919871,28.550130595746854]]]},"id":"1546,571","properties":{"grid_id":"7733,2858"}},{"type":"Feature","geometry":{"geodesic":false,"crs":{"type":"name","properties":{"name":"EPSG:4326"}},"type":"Polygon","coordinates":[[[76.85035153356027,28.600130824460948],[76.90035176227437,28.600130824460948],[76.90035176227437,28.650131053175038],[76.85035153356027,28.650131053175038],[76.85035153356027,28.600130824460948]]]},"id":"1537,572","properties":{"grid_id":"7688,2863"}},{"type":"Feature","geometry":{"geodesic":false,"crs":{"type":"name","properties":{"name":"EPSG:4326"}},"type":"Polygon","coordinates":[[[76.90035176227437,28.600130824460948],[76.95035199098845,28.600130824460948],[76.95035199098845,28.650131053175038],[76.90035176227437,28.650131053175038],[76.90035176227437,28.600130824460948]]]},"id":"1538,572","properties":{"grid_id":"7693,2863"}},{"type":"Feature","geometry":{"geodesic":false,"crs":{"type":"name","properties":{"name":"EPSG:4326"}},"type":"Polygon","coordinates":[[[76.95035199098845,28.600130824460948],[77.00035221970255,28.600130824460948],[77.00035221970255,28.650131053175038],[76.95035199098845,28.650131053175038],[76.95035199098845,28.600130824460948]]]},"id":"1539,572","properties":{"grid_id":"7698,2863"}},{"type":"Feature","geometry":{"geodesic":false,"crs":{"type":"name","properties":{"name":"EPSG:4326"}},"type":"Polygon","coordinates":[[[77.00035221970255,28.600130824460948],[77.05035244841665,28.600130824460948],[77.05035244841665,28.650131053175038],[77.00035221970255,28.650131053175038],[77.00035221970255,28.600130824460948]]]},"id":"1540,572","properties":{"grid_id":"7703,2863"}},{"type":"Feature","geometry":{"geodesic":false,"crs":{"type":"name","properties":{"name":"EPSG:4326"}},"type":"Polygon","coordinates":[[[77.05035244841665,28.600130824460948],[77.10035267713073,28.600130824460948],[77.10035267713073,28.650131053175038],[77.05035244841665,28.650131053175038],[77.05035244841665,28.600130824460948]]]},"id":"1541,572","properties":{"grid_id":"7708,2863"}},{"type":"Feature","geometry":{"geodesic":false,"crs":{"type":"name","properties":{"name":"EPSG:4326"}},"type":"Polygon","coordinates":[[[77.10035267713073,28.600130824460948],[77.15035290584483,28.600130824460948],[77.15035290584483,28.650131053175038],[77.10035267713073,28.650131053175038],[77.10035267713073,28.600130824460948]]]},"id":"1542,572","properties":{"grid_id":"7713,2863"}},{"type":"Feature","geometry":{"geodesic":false,"crs":{"type":"name","properties":{"name":"EPSG:4326"}},"type":"Polygon","coordinates":[[[77.15035290584483,28.600130824460948],[77.20035313455892,28.600130824460948],[77.20035313455892,28.650131053175038],[77.15035290584483,28.650131053175038],[77.15035290584483,28.600130824460948]]]},"id":"1543,572","properties":{"grid_id":"7718,2863"}},{"type":"Feature","geometry":{"geodesic":false,"crs":{"type":"name","properties":{"name":"EPSG:4326"}},"type":"Polygon","coordinates":[[[77.20035313455892,28.600130824460948],[77.250353363273,28.600130824460948],[77.250353363273,28.650131053175038],[77.20035313455892,28.650131053175038],[77.20035313455892,28.600130824460948]]]},"id":"1544,572","properties":{"grid_id":"7723,2863"}},{"type":"Feature","geometry":{"geodesic":false,"crs":{"type":"name","properties":{"name":"EPSG:4326"}},"type":"Polygon","coordinates":[[[77.250353363273,28.600130824460948],[77.3003535919871,28.600130824460948],[77.3003535919871,28.650131053175038],[77.250353363273,28.650131053175038],[77.250353363273,28.600130824460948]]]},"id":"1545,572","properties":{"grid_id":"7728,2863"}},{"type":"Feature","geometry":{"geodesic":false,"crs":{"type":"name","properties":{"name":"EPSG:4326"}},"type":"Polygon","coordinates":[[[77.3003535919871,28.600130824460948],[77.3503538207012,28.600130824460948],[77.3503538207012,28.650131053175038],[77.3003535919871,28.650131053175038],[77.3003535919871,28.600130824460948]]]},"id":"1546,572","properties":{"grid_id":"7733,2863"}},{"type":"Feature","geometry":{"geodesic":false,"crs":{"type":"name","properties":{"name":"EPSG:4326"}},"type":"Polygon","coordinates":[[[76.90035176227437,28.650131053175038],[76.95035199098845,28.650131053175038],[76.95035199098845,28.70013128188913],[76.90035176227437,28.70013128188913],[76.90035176227437,28.650131053175038]]]},"id":"1538,573","properties":{"grid_id":"7693,2868"}},{"type":"Feature","geometry":{"geodesic":false,"crs":{"type":"name","properties":{"name":"EPSG:4326"}},"type":"Polygon","coordinates":[[[76.95035199098845,28.650131053175038],[77.00035221970255,28.650131053175038],[77.00035221970255,28.70013128188913],[76.95035199098845,28.70013128188913],[76.95035199098845,28.650131053175038]]]},"id":"1539,573","properties":{"grid_id":"7698,2868"}},{"type":"Feature","geometry":{"geodesic":false,"crs":{"type":"name","properties":{"name":"EPSG:4326"}},"type":"Polygon","coordinates":[[[77.00035221970255,28.650131053175038],[77.05035244841665,28.650131053175038],[77.05035244841665,28.70013128188913],[77.00035221970255,28.70013128188913],[77.00035221970255,28.650131053175038]]]},"id":"1540,573","properties":{"grid_id":"7703,2868"}},{"type":"Feature","geometry":{"geodesic":false,"crs":{"type":"name","properties":{"name":"EPSG:4326"}},"type":"Polygon","coordinates":[[[77.05035244841665,28.650131053175038],[77.10035267713073,28.650131053175038],[77.10035267713073,28.70013128188913],[77.05035244841665,28.70013128188913],[77.05035244841665,28.650131053175038]]]},"id":"1541,573","properties":{"grid_id":"7708,2868"}},{"type":"Feature","geometry":{"geodesic":false,"crs":{"type":"name","properties":{"name":"EPSG:4326"}},"type":"Polygon","coordinates":[[[77.10035267713073,28.650131053175038],[77.15035290584483,28.650131053175038],[77.15035290584483,28.70013128188913],[77.10035267713073,28.70013128188913],[77.10035267713073,28.650131053175038]]]},"id":"1542,573","properties":{"grid_id":"7713,2868"}},{"type":"Feature","geometry":{"geodesic":false,"crs":{"type":"name","properties":{"name":"EPSG:4326"}},"type":"Polygon","coordinates":[[[77.15035290584483,28.650131053175038],[77.20035313455892,28.650131053175038],[77.20035313455892,28.70013128188913],[77.15035290584483,28.70013128188913],[77.15035290584483,28.650131053175038]]]},"id":"1543,573","properties":{"grid_id":"7718,2868"}},{"type":"Feature","geometry":{"geodesic":false,"crs":{"type":"name","properties":{"name":"EPSG:4326"}},"type":"Polygon","coordinates":[[[77.20035313455892,28.650131053175038],[77.250353363273,28.650131053175038],[77.250353363273,28.70013128188913],[77.20035313455892,28.70013128188913],[77.20035313455892,28.650131053175038]]]},"id":"1544,573","properties":{"grid_id":"7723,2868"}},{"type":"Feature","geometry":{"geodesic":false,"crs":{"type":"name","properties":{"name":"EPSG:4326"}},"type":"Polygon","coordinates":[[[77.250353363273,28.650131053175038],[77.3003535919871,28.650131053175038],[77.3003535919871,28.70013128188913],[77.250353363273,28.70013128188913],[77.250353363273,28.650131053175038]]]},"id":"1545,573","properties":{"grid_id":"7728,2868"}},{"type":"Feature","geometry":{"geodesic":false,"crs":{"type":"name","properties":{"name":"EPSG:4326"}},"type":"Polygon","coordinates":[[[77.3003535919871,28.650131053175038],[77.3503538207012,28.650131053175038],[77.3503538207012,28.70013128188913],[77.3003535919871,28.70013128188913],[77.3003535919871,28.650131053175038]]]},"id":"1546,573","properties":{"grid_id":"7733,2868"}},{"type":"Feature","geometry":{"geodesic":false,"crs":{"type":"name","properties":{"name":"EPSG:4326"}},"type":"Polygon","coordinates":[[[76.90035176227437,28.70013128188913],[76.95035199098845,28.70013128188913],[76.95035199098845,28.750131510603225],[76.90035176227437,28.750131510603225],[76.90035176227437,28.70013128188913]]]},"id":"1538,574","properties":{"grid_id":"7693,2873"}},{"type":"Feature","geometry":{"geodesic":false,"crs":{"type":"name","properties":{"name":"EPSG:4326"}},"type":"Polygon","coordinates":[[[76.95035199098845,28.70013128188913],[77.00035221970255,28.70013128188913],[77.00035221970255,28.750131510603225],[76.95035199098845,28.750131510603225],[76.95035199098845,28.70013128188913]]]},"id":"1539,574","properties":{"grid_id":"7698,2873"}},{"type":"Feature","geometry":{"geodesic":false,"crs":{"type":"name","properties":{"name":"EPSG:4326"}},"type":"Polygon","coordinates":[[[77.00035221970255,28.70013128188913],[77.05035244841665,28.70013128188913],[77.05035244841665,28.750131510603225],[77.00035221970255,28.750131510603225],[77.00035221970255,28.70013128188913]]]},"id":"1540,574","properties":{"grid_id":"7703,2873"}},{"type":"Feature","geometry":{"geodesic":false,"crs":{"type":"name","properties":{"name":"EPSG:4326"}},"type":"Polygon","coordinates":[[[77.05035244841665,28.70013128188913],[77.10035267713073,28.70013128188913],[77.10035267713073,28.750131510603225],[77.05035244841665,28.750131510603225],[77.05035244841665,28.70013128188913]]]},"id":"1541,574","properties":{"grid_id":"7708,2873"}},{"type":"Feature","geometry":{"geodesic":false,"crs":{"type":"name","properties":{"name":"EPSG:4326"}},"type":"Polygon","coordinates":[[[77.10035267713073,28.70013128188913],[77.15035290584483,28.70013128188913],[77.15035290584483,28.750131510603225],[77.10035267713073,28.750131510603225],[77.10035267713073,28.70013128188913]]]},"id":"1542,574","properties":{"grid_id":"7713,2873"}},{"type":"Feature","geometry":{"geodesic":false,"crs":{"type":"name","properties":{"name":"EPSG:4326"}},"type":"Polygon","coordinates":[[[77.15035290584483,28.70013128188913],[77.20035313455892,28.70013128188913],[77.20035313455892,28.750131510603225],[77.15035290584483,28.750131510603225],[77.15035290584483,28.70013128188913]]]},"id":"1543,574","properties":{"grid_id":"7718,2873"}},{"type":"Feature","geometry":{"geodesic":false,"crs":{"type":"name","properties":{"name":"EPSG:4326"}},"type":"Polygon","coordinates":[[[77.20035313455892,28.70013128188913],[77.250353363273,28.70013128188913],[77.250353363273,28.750131510603225],[77.20035313455892,28.750131510603225],[77.20035313455892,28.70013128188913]]]},"id":"1544,574","properties":{"grid_id":"7723,2873"}},{"type":"Feature","geometry":{"geodesic":false,"crs":{"type":"name","properties":{"name":"EPSG:4326"}},"type":"Polygon","coordinates":[[[77.250353363273,28.70013128188913],[77.3003535919871,28.70013128188913],[77.3003535919871,28.750131510603225],[77.250353363273,28.750131510603225],[77.250353363273,28.70013128188913]]]},"id":"1545,574","properties":{"grid_id":"7728,2873"}},{"type":"Feature","geometry":{"geodesic":false,"crs":{"type":"name","properties":{"name":"EPSG:4326"}},"type":"Polygon","coordinates":[[[77.3003535919871,28.70013128188913],[77.3503538207012,28.70013128188913],[77.3503538207012,28.750131510603225],[77.3003535919871,28.750131510603225],[77.3003535919871,28.70013128188913]]]},"id":"1546,574","properties":{"grid_id":"7733,2873"}},{"type":"Feature","geometry":{"geodesic":false,"crs":{"type":"name","properties":{"name":"EPSG:4326"}},"type":"Polygon","coordinates":[[[76.90035176227437,28.750131510603225],[76.95035199098845,28.750131510603225],[76.95035199098845,28.800131739317315],[76.90035176227437,28.800131739317315],[76.90035176227437,28.750131510603225]]]},"id":"1538,575","properties":{"grid_id":"7693,2878"}},{"type":"Feature","geometry":{"geodesic":false,"crs":{"type":"name","properties":{"name":"EPSG:4326"}},"type":"Polygon","coordinates":[[[76.95035199098845,28.750131510603225],[77.00035221970255,28.750131510603225],[77.00035221970255,28.800131739317315],[76.95035199098845,28.800131739317315],[76.95035199098845,28.750131510603225]]]},"id":"1539,575","properties":{"grid_id":"7698,2878"}},{"type":"Feature","geometry":{"geodesic":false,"crs":{"type":"name","properties":{"name":"EPSG:4326"}},"type":"Polygon","coordinates":[[[77.00035221970255,28.750131510603225],[77.05035244841665,28.750131510603225],[77.05035244841665,28.800131739317315],[77.00035221970255,28.800131739317315],[77.00035221970255,28.750131510603225]]]},"id":"1540,575","properties":{"grid_id":"7703,2878"}},{"type":"Feature","geometry":{"geodesic":false,"crs":{"type":"name","properties":{"name":"EPSG:4326"}},"type":"Polygon","coordinates":[[[77.05035244841665,28.750131510603225],[77.10035267713073,28.750131510603225],[77.10035267713073,28.800131739317315],[77.05035244841665,28.800131739317315],[77.05035244841665,28.750131510603225]]]},"id":"1541,575","properties":{"grid_id":"7708,2878"}},{"type":"Feature","geometry":{"geodesic":false,"crs":{"type":"name","properties":{"name":"EPSG:4326"}},"type":"Polygon","coordinates":[[[77.10035267713073,28.750131510603225],[77.15035290584483,28.750131510603225],[77.15035290584483,28.800131739317315],[77.10035267713073,28.800131739317315],[77.10035267713073,28.750131510603225]]]},"id":"1542,575","properties":{"grid_id":"7713,2878"}},{"type":"Feature","geometry":{"geodesic":false,"crs":{"type":"name","properties":{"name":"EPSG:4326"}},"type":"Polygon","coordinates":[[[77.15035290584483,28.750131510603225],[77.20035313455892,28.750131510603225],[77.20035313455892,28.800131739317315],[77.15035290584483,28.800131739317315],[77.15035290584483,28.750131510603225]]]},"id":"1543,575","properties":{"grid_id":"7718,2878"}},{"type":"Feature","geometry":{"geodesic":false,"crs":{"type":"name","properties":{"name":"EPSG:4326"}},"type":"Polygon","coordinates":[[[77.20035313455892,28.750131510603225],[77.250353363273,28.750131510603225],[77.250353363273,28.800131739317315],[77.20035313455892,28.800131739317315],[77.20035313455892,28.750131510603225]]]},"id":"1544,575","properties":{"grid_id":"7723,2878"}},{"type":"Feature","geometry":{"geodesic":false,"crs":{"type":"name","properties":{"name":"EPSG:4326"}},"type":"Polygon","coordinates":[[[77.250353363273,28.750131510603225],[77.3003535919871,28.750131510603225],[77.3003535919871,28.800131739317315],[77.250353363273,28.800131739317315],[77.250353363273,28.750131510603225]]]},"id":"1545,575","properties":{"grid_id":"7728,2878"}},{"type":"Feature","geometry":{"geodesic":false,"crs":{"type":"name","properties":{"name":"EPSG:4326"}},"type":"Polygon","coordinates":[[[76.90035176227437,28.800131739317315],[76.95035199098845,28.800131739317315],[76.95035199098845,28.85013196803141],[76.90035176227437,28.85013196803141],[76.90035176227437,28.800131739317315]]]},"id":"1538,576","properties":{"grid_id":"7693,2883"}},{"type":"Feature","geometry":{"geodesic":false,"crs":{"type":"name","properties":{"name":"EPSG:4326"}},"type":"Polygon","coordinates":[[[76.95035199098845,28.800131739317315],[77.00035221970255,28.800131739317315],[77.00035221970255,28.85013196803141],[76.95035199098845,28.85013196803141],[76.95035199098845,28.800131739317315]]]},"id":"1539,576","properties":{"grid_id":"7698,2883"}},{"type":"Feature","geometry":{"geodesic":false,"crs":{"type":"name","properties":{"name":"EPSG:4326"}},"type":"Polygon","coordinates":[[[77.00035221970255,28.800131739317315],[77.05035244841665,28.800131739317315],[77.05035244841665,28.85013196803141],[77.00035221970255,28.85013196803141],[77.00035221970255,28.800131739317315]]]},"id":"1540,576","properties":{"grid_id":"7703,2883"}},{"type":"Feature","geometry":{"geodesic":false,"crs":{"type":"name","properties":{"name":"EPSG:4326"}},"type":"Polygon","coordinates":[[[77.05035244841665,28.800131739317315],[77.10035267713073,28.800131739317315],[77.10035267713073,28.85013196803141],[77.05035244841665,28.85013196803141],[77.05035244841665,28.800131739317315]]]},"id":"1541,576","properties":{"grid_id":"7708,2883"}},{"type":"Feature","geometry":{"geodesic":false,"crs":{"type":"name","properties":{"name":"EPSG:4326"}},"type":"Polygon","coordinates":[[[77.10035267713073,28.800131739317315],[77.15035290584483,28.800131739317315],[77.15035290584483,28.85013196803141],[77.10035267713073,28.85013196803141],[77.10035267713073,28.800131739317315]]]},"id":"1542,576","properties":{"grid_id":"7713,2883"}},{"type":"Feature","geometry":{"geodesic":false,"crs":{"type":"name","properties":{"name":"EPSG:4326"}},"type":"Polygon","coordinates":[[[77.15035290584483,28.800131739317315],[77.20035313455892,28.800131739317315],[77.20035313455892,28.85013196803141],[77.15035290584483,28.85013196803141],[77.15035290584483,28.800131739317315]]]},"id":"1543,576","properties":{"grid_id":"7718,2883"}},{"type":"Feature","geometry":{"geodesic":false,"crs":{"type":"name","properties":{"name":"EPSG:4326"}},"type":"Polygon","coordinates":[[[77.20035313455892,28.800131739317315],[77.250353363273,28.800131739317315],[77.250353363273,28.85013196803141],[77.20035313455892,28.85013196803141],[77.20035313455892,28.800131739317315]]]},"id":"1544,576","properties":{"grid_id":"7723,2883"}},{"type":"Feature","geometry":{"geodesic":false,"crs":{"type":"name","properties":{"name":"EPSG:4326"}},"type":"Polygon","coordinates":[[[77.00035221970255,28.85013196803141],[77.05035244841665,28.85013196803141],[77.05035244841665,28.900132196745503],[77.00035221970255,28.900132196745503],[77.00035221970255,28.85013196803141]]]},"id":"1540,577","properties":{"grid_id":"7703,2888"}},{"type":"Feature","geometry":{"geodesic":false,"crs":{"type":"name","properties":{"name":"EPSG:4326"}},"type":"Polygon","coordinates":[[[77.05035244841665,28.85013196803141],[77.10035267713073,28.85013196803141],[77.10035267713073,28.900132196745503],[77.05035244841665,28.900132196745503],[77.05035244841665,28.85013196803141]]]},"id":"1541,577","properties":{"grid_id":"7708,2888"}},{"type":"Feature","geometry":{"geodesic":false,"crs":{"type":"name","properties":{"name":"EPSG:4326"}},"type":"Polygon","coordinates":[[[77.10035267713073,28.85013196803141],[77.15035290584483,28.85013196803141],[77.15035290584483,28.900132196745503],[77.10035267713073,28.900132196745503],[77.10035267713073,28.85013196803141]]]},"id":"1542,577","properties":{"grid_id":"7713,2888"}},{"type":"Feature","geometry":{"geodesic":false,"crs":{"type":"name","properties":{"name":"EPSG:4326"}},"type":"Polygon","coordinates":[[[77.15035290584483,28.85013196803141],[77.20035313455892,28.85013196803141],[77.20035313455892,28.900132196745503],[77.15035290584483,28.900132196745503],[77.15035290584483,28.85013196803141]]]},"id":"1543,577","properties":{"grid_id":"7718,2888"}},{"type":"Feature","geometry":{"geodesic":false,"crs":{"type":"name","properties":{"name":"EPSG:4326"}},"type":"Polygon","coordinates":[[[77.20035313455892,28.85013196803141],[77.250353363273,28.85013196803141],[77.250353363273,28.900132196745503],[77.20035313455892,28.900132196745503],[77.20035313455892,28.85013196803141]]]},"id":"1544,577","properties":{"grid_id":"7723,2888"}}]}